NORAD_CAT_ID,OBJECT_NAME,OBJECT_TYPE,EPOCH,MEAN_MOTION,ECCENTRICITY,INCLINATION,RA_OF_ASC_NODE,ARG_OF_PERICENTER,MEAN_ANOMALY,BSTAR,MEAN_MOTION_DOT,MEAN_MOTION_DDOT,TLE_LINE0,TLE_LINE1,TLE_LINE2,SEMIMAJOR_AXIS,PERIOD,APOGEE,PERIGEE,DECAYED
54774.0,STARLINK-5454,PAYLOAD,2024-05-21 06:04:55,15.0883673,0.0001453,53.217,100.1458,94.5694,265.5464,8.2302e-05,1.022e-05,0.0,0 STARLINK-5454,1 54774U 22175S   24142.25341988  .00001022  00000-0  82302-4 0  9991,2 54774  53.2170 100.1458 0001453  94.5694 265.5464 15.08836730 78723,6917.89,95.438,540.761,538.75,0.0
54774.0,STARLINK-5454,PAYLOAD,2024-05-22 05:55:42,15.08843364,0.0001518,53.2169,95.6844,79.0876,281.0287,0.00010156,1.329e-05,0.0,0 STARLINK-5454,1 54774U 22175S   24143.24701777  .00001329  00000-0  10156-3 0  9994,2 54774  53.2169  95.6844 0001518  79.0876 281.0287 15.08843364 81035,6917.87,95.437,540.785,538.685,0.0
54774.0,STARLINK-5454,PAYLOAD,2024-05-23 04:11:06,15.08843606,0.0001629,53.2183,91.5206,82.6396,277.4782,5.3547e-05,5.64e-06,0.0,0 STARLINK-5454,1 54774U 22175S   24144.17438037  .00000564  00000-0  53547-4 0  9995,2 54774  53.2183  91.5206 0001629  82.6396 277.4782 15.08843606 79011,6917.869,95.437,540.861,538.607,0.0
54774.0,STARLINK-5454,PAYLOAD,2024-05-23 20:04:58,15.0884467,0.0001599,53.2178,88.5531,77.5868,282.5303,-1.9412e-05,-5.97e-06,0.0,0 STARLINK-5454,1 54774U 22175S   24144.83678322 -.00000597  00000-0 -19412-4 0  9992,2 54774  53.2178  88.5531 0001599  77.5868 282.5303 15.08844670 81274,6917.866,95.437,540.837,538.625,0.0
54774.0,STARLINK-5454,PAYLOAD,2024-05-24 02:26:30,15.0884122,0.0001681,53.2184,87.3616,73.9626,286.1551,-1.3119e-05,-4.97e-06,0.0,0 STARLINK-5454,1 54774U 22175S   24145.10174498 -.00000497  00000-0 -13119-4 0  9995,2 54774  53.2184  87.3616 0001681  73.9626 286.1551 15.08841220 79153,6917.877,95.437,540.905,538.579,0.0
54774.0,STARLINK-5454,PAYLOAD,2024-05-24 05:37:16,15.08850012,0.0001532,53.2179,86.7622,88.2196,271.8972,3.3918e-05,2.52e-06,0.0,0 STARLINK-5454,1 54774U 22175S   24145.23421534  .00000252  00000-0  33918-4 0  9991,2 54774  53.2179  86.7622 0001532  88.2196 271.8972 15.08850012 79172,6917.85,95.437,540.775,538.655,0.0
54774.0,STARLINK-5454,PAYLOAD,2024-05-24 19:55:45,15.08834963,0.0001411,53.2186,84.0908,63.5265,296.5872,-3.5006e-05,-8.45e-06,0.0,0 STARLINK-5454,1 54774U 22175S   24145.83038839 -.00000845  00000-0 -35006-4 0  9999,2 54774  53.2186  84.0908 0001411  63.5265 296.5872 15.08834963 79267,6917.896,95.438,540.737,538.785,0.0
54774.0,STARLINK-5454,PAYLOAD,2024-05-25 05:28:03,15.08847041,0.0001582,53.2179,82.3014,106.1181,253.9986,-6.7748e-07,-2.99e-06,0.0,0 STARLINK-5454,1 54774U 22175S   24146.22781674 -.00000299  00000-0 -67748-6 0  9998,2 54774  53.2179  82.3014 0001582 106.1181 253.9986 15.08847041 79329,6917.859,95.437,540.818,538.629,0.0
54774.0,STARLINK-5454,PAYLOAD,2024-05-25 19:46:32,15.08838542,0.0001657,53.2179,79.6209,112.1062,248.0106,-8.4426e-05,-1.631e-05,0.0,0 STARLINK-5454,1 54774U 22175S   24146.82398736 -.00001631  00000-0 -84426-4 0  9998,2 54774  53.2179  79.6209 0001657 112.1062 248.0106 15.08838542 79417,6917.885,95.438,540.896,538.604,0.0
54774.0,STARLINK-5454,PAYLOAD,2024-05-26 05:18:51,15.0884055,0.0001411,53.2179,77.8408,95.1,265.0153,-3.7673e-05,-8.87e-06,0.0,0 STARLINK-5454,1 54774U 22175S   24147.22142495 -.00000887  00000-0 -37673-4 0  9996,2 54774  53.2179  77.8408 0001411  95.1000 265.0153 15.08840550 81638,6917.879,95.438,540.72,538.768,0.0
54774.0,STARLINK-5454,PAYLOAD,2024-05-26 22:48:05,15.08841821,0.0001633,53.2177,74.5688,120.4047,239.7107,1.3871e-05,-6.7e-07,0.0,0 STARLINK-5454,1 54774U 22175S   24147.95006232 -.00000067  00000-0  13871-4 0  9997,2 54774  53.2177  74.5688 0001633 120.4047 239.7107 15.08841821 81740,6917.875,95.437,540.87,538.61,0.0
54774.0,STARLINK-5454,PAYLOAD,2024-05-27 05:09:37,15.08844782,0.0001432,53.2179,73.3831,97.9993,262.1162,6.6277e-05,7.67e-06,0.0,0 STARLINK-5454,1 54774U 22175S   24148.21501940  .00000767  00000-0  66277-4 0  9997,2 54774  53.2179  73.3831 0001432  97.9993 262.1162 15.08844782 79628,6917.866,95.437,540.721,538.74,0.0
54774.0,STARLINK-5454,PAYLOAD,2024-05-27 11:31:10,15.08846092,0.0001436,53.2178,72.1909,112.1226,247.9918,3.0934e-05,2.04e-06,0.0,0 STARLINK-5454,1 54774U 22175S   24148.47997797  .00000204  00000-0  30934-4 0  9991,2 54774  53.2178  72.1909 0001436 112.1226 247.9918 15.08846092 81824,6917.862,95.437,540.72,538.733,0.0
54774.0,STARLINK-5454,PAYLOAD,2024-05-27 19:28:06,15.0883655,0.0001535,53.218,70.7009,113.2842,246.8311,-5.4756e-06,-3.75e-06,0.0,0 STARLINK-5454,1 54774U 22175S   24148.81118792 -.00000375  00000-0 -54756-5 0  9999,2 54774  53.2180  70.7009 0001535 113.2842 246.8311 15.08836550 79716,6917.891,95.438,540.818,538.694,0.0
54774.0,STARLINK-5454,PAYLOAD,2024-05-27 22:38:52,15.08837079,0.0001327,53.2173,70.1064,100.4431,259.6711,2.1091e-06,-2.54e-06,0.0,0 STARLINK-5454,1 54774U 22175S   24148.94366784 -.00000254  00000-0  21091-5 0  9990,2 54774  53.2173  70.1064 0001327 100.4431 259.6711 15.08837079 81899,6917.889,95.438,540.672,538.836,0.0
54774.0,STARLINK-5454,PAYLOAD,2024-05-28 11:21:58,15.08833879,0.0001238,53.2173,67.728,109.1269,250.9858,3.7444e-05,3.08e-06,0.0,0 STARLINK-5454,1 54774U 22175S   24149.47358944  .00000308  00000-0  37444-4 0  9995,2 54774  53.2173  67.7280 0001238 109.1269 250.9858 15.08833879 81976,6917.899,95.438,540.621,538.908,0.0
54774.0,STARLINK-5454,PAYLOAD,2024-05-28 22:29:40,15.08839544,0.0001225,53.2171,65.6445,97.7503,262.3628,-7.042e-05,-1.408e-05,0.0,0 STARLINK-5454,1 54774U 22175S   24149.93727144 -.00001408  00000-0 -70420-4 0  9993,2 54774  53.2171  65.6445 0001225  97.7503 262.3628 15.08839544 82049,6917.882,95.438,540.594,538.899,0.0
54774.0,STARLINK-5454,PAYLOAD,2024-05-29 00:05:03,15.08843125,0.0001211,53.2181,65.3568,90.5705,269.5426,-6.1676e-05,-1.269e-05,0.0,0 STARLINK-5454,1 54774U 22175S   24150.00351040 -.00001269  00000-0 -61676-4 0  9999,2 54774  53.2181  65.3568 0001211  90.5705 269.5426 15.08843125 79897,6917.871,95.437,540.574,538.898,0.0
54774.0,STARLINK-5454,PAYLOAD,2024-05-29 22:20:27,15.08837765,0.000127,53.2184,61.2005,93.0304,267.0833,6.4573e-05,7.4e-06,0.0,0 STARLINK-5454,1 54774U 22175S   24150.93087114  .00000740  00000-0  64573-4 0  9999,2 54774  53.2184  61.2005 0001270  93.0304 267.0833 15.08837765 82194,6917.887,95.438,540.631,538.874,0.0
54774.0,STARLINK-5454,PAYLOAD,2024-05-30 03:06:36,15.08845331,0.0001204,53.2178,60.3025,94.7026,265.4104,0.00012741,1.741e-05,0.0,0 STARLINK-5454,1 54774U 22175S   24151.12958355  .00001741  00000-0  12741-3 0  9996,2 54774  53.2178  60.3025 0001204  94.7026 265.4104 15.08845331 80060,6917.864,95.437,540.562,538.896,0.0
54774.0,STARLINK-5454,PAYLOAD,2024-05-30 17:25:04,15.08843778,0.0001411,53.219,57.6244,79.1319,280.9832,4.9674e-05,5.03e-06,0.0,0 STARLINK-5454,1 54774U 22175S   24151.72574807  .00000503  00000-0  49674-4 0  9999,2 54774  53.2190  57.6244 0001411  79.1319 280.9832 15.08843778 80151,6917.869,95.437,540.71,538.758,0.0
54774.0,STARLINK-5454,PAYLOAD,2024-05-30 22:11:13,15.08844562,0.0001422,53.219,56.7323,78.469,281.6462,4.8335e-05,4.81e-06,0.0,0 STARLINK-5454,1 54774U 22175S   24151.92446705  .00000481  00000-0  48335-4 0  9994,2 54774  53.2190  56.7323 0001422  78.4690 281.6462 15.08844562 82347,6917.866,95.437,540.715,538.748,0.0
54774.0,STARLINK-5454,PAYLOAD,2024-05-31 01:22:00,15.08831634,0.0001403,53.2185,56.1378,102.1419,257.973,0.00029958,4.482e-05,0.0,0 STARLINK-5454,1 54774U 22175S   24152.05694472  .00004482  00000-0  29958-3 0  9999,2 54774  53.2185  56.1378 0001403 102.1419 257.9730 15.08831634 82360,6917.906,95.438,540.742,538.8,0.0
54774.0,STARLINK-5454,PAYLOAD,2024-05-31 22:02:00,15.08840371,0.0001482,53.2187,52.2717,111.2568,248.8582,3.2583e-05,2.31e-06,0.0,0 STARLINK-5454,1 54774U 22175S   24152.91806528  .00000231  00000-0  32583-4 0  9998,2 54774  53.2187  52.2717 0001482 111.2568 248.8582 15.08840371 82495,6917.879,95.438,540.769,538.719,0.0
54774.0,STARLINK-5454,PAYLOAD,2024-05-31 23:37:22,15.08936612,0.0001107,53.218,51.9727,136.6233,223.4847,-0.0011739,-0.00018971,0.0,0 STARLINK-5454,1 54774U 22175S   24152.98428263 -.00018971  00000-0 -11739-2 0  9991,2 54774  53.2180  51.9727 0001107 136.6233 223.4847 15.08936612 80348,6917.585,95.431,540.216,538.684,0.0
54774.0,STARLINK-5454,PAYLOAD,2024-06-01 10:45:05,15.0884448,0.0001285,53.2175,49.8919,99.0965,261.0173,-2.4276e-05,-6.74e-06,0.0,0 STARLINK-5454,1 54774U 22175S   24153.44798309 -.00000674  00000-0 -24276-4 0  9997,2 54774  53.2175  49.8919 0001285  99.0965 261.0173 15.08844480 80411,6917.867,95.437,540.621,538.843,0.0
54774.0,STARLINK-5454,PAYLOAD,2024-06-01 21:52:48,15.08836446,0.0001528,53.2189,47.8107,94.8804,265.2363,-5.5396e-05,-1.169e-05,0.0,0 STARLINK-5454,1 54774U 22175S   24153.91167041 -.00001169  00000-0 -55396-4 0  9999,2 54774  53.2189  47.8107 0001528  94.8804 265.2363 15.08836446 80485,6917.891,95.438,540.813,538.699,0.0
54774.0,STARLINK-5454,PAYLOAD,2024-06-01 23:28:11,15.08834049,0.0001358,53.2195,47.5115,103.9228,256.1915,3.4841e-05,2.67e-06,0.0,0 STARLINK-5454,1 54774U 22175S   24153.97790863  .00000267  00000-0  34841-4 0  9997,2 54774  53.2195  47.5115 0001358 103.9228 256.1915 15.08834049 82651,6917.899,95.438,540.703,538.824,0.0
54774.0,STARLINK-5454,PAYLOAD,2024-06-02 23:18:58,15.08833675,0.0001327,53.2184,43.0555,83.9168,276.1976,6.7133e-06,-1.81e-06,0.0,0 STARLINK-5454,1 54774U 22175S   24154.97151285 -.00000181  00000-0  67133-5 0  9994,2 54774  53.2184  43.0555 0001327  83.9168 276.1976 15.08833675 82804,6917.9,95.438,540.683,538.847,0.0
54774.0,STARLINK-5454,PAYLOAD,2024-06-03 02:29:44,15.08839517,0.0001248,53.217,42.4575,87.572,272.5415,6.3232e-06,-1.87e-06,0.0,0 STARLINK-5454,1 54774U 22175S   24155.10398932 -.00000187  00000-0  63232-5 0  9994,2 54774  53.2170  42.4575 0001248  87.5720 272.5415 15.08839517 80661,6917.882,95.438,540.61,538.884,0.0
